     2.100          NAVIGATION                              RINEX VERSION / TYPE
fic2rin                                 06/24/2015 00:15:35 PGM / RUN BY / DATE
                                                            END OF HEADER
 1 15  6 24  0  0  0.0 -.386172905564D-05  .568434188608D-12  .000000000000D+00
     .800000000000D+01 -.486250000000D+02  .464019328268D-08  .250130550379D+01
    -.254064798355D-05  .439180072863D-02  .818446278572D-05  .515366540337D+04
     .259200000000D+06 -.137835741043D-06 -.242842998366D+01 -.186264514923D-07
     .962433623395D+00  .222718750000D+03  .393454990488D+00 -.797176062726D-08
    -.914323799542D-10  .100000000000D+01  .185000000000D+04  .000000000000D+00
     .240000000000D+01  .000000000000D+00  .558793544769D-08  .800000000000D+01
     .252006000000D+06  .400000000000D+01
 2 15  6 24  0  0  0.0  .573973637074D-03  .238742359215D-11  .000000000000D+00
     .112000000000D+03 -.659062500000D+02  .509735518245D-08  .296795170043D+01
    -.344216823578D-05  .146196584683D-01  .743009150028D-05  .515357923317D+04
     .259200000000D+06 -.372529029846D-08 -.246659798302D+01 -.240281224251D-06
     .941093772585D+00  .221093750000D+03 -.225389482475D+01 -.809247994141D-08
    -.225366530278D-09  .100000000000D+01  .185000000000D+04  .000000000000D+00
     .340000000000D+01  .000000000000D+00 -.204890966415D-07  .112000000000D+03
     .252006000000D+06  .400000000000D+01
 3 15  6 24  0  0  0.0  .355361960828D-03  .636646291241D-11  .000000000000D+00
     .530000000000D+02  .240625000000D+02  .457447625958D-08 -.193853702104D+01
     .124238431454D-05  .847389688715D-03  .925548374653D-05  .515366162491D+04
     .259200000000D+06  .372529029846D-08 -.138761800064D+01  .204890966415D-07
     .958890805925D+00  .198906250000D+03 -.254352974781D+01 -.797783230874D-08
    -.785747015231D-11  .100000000000D+01  .185000000000D+04  .000000000000D+00
     .240000000000D+01  .000000000000D+00  .186264514923D-08  .530000000000D+02
     .252006000000D+06  .400000000000D+01
 4 15  6 24  0  0  0.0 -.210767611861D-04 -.227373675443D-11  .000000000000D+00
     .840000000000D+02 -.539375000000D+02  .505306762341D-08  .225167468711D+01
    -.301189720631D-05  .114274212392D-01  .766105949879D-05  .515368144989D+04
     .259200000000D+06 -.409781932831D-07 -.245136543483D+01 -.219792127609D-06
     .940151763060D+00  .219625000000D+03  .106476979888D+01 -.812319550656D-08
    -.111433213069D-09  .100000000000D+01  .185000000000D+04  .000000000000D+00
     .340000000000D+01  .000000000000D+00 -.651925802231D-08  .840000000000D+02
     .252006000000D+06  .400000000000D+01
 5 15  6 24  0  0  0.0 -.225896481425D-03  .443378667114D-11  .000000000000D+00
     .910000000000D+02  .179375000000D+02  .480162857853D-08 -.816721163212D+00
     .869855284691D-06  .417499931064D-02  .100266188383D-04  .515358452034D+04
     .259200000000D+06  .124797224998D-06 -.139501303544D+01  .111758708954D-07
     .946102319862D+00  .179156250000D+03  .369193310452D+00 -.811140930133D-08
    -.546451333320D-10  .100000000000D+01  .185000000000D+04  .000000000000D+00
     .240000000000D+01  .000000000000D+00 -.107102096081D-07  .910000000000D+02
     .252006000000D+06  .400000000000D+01
 7 15  6 24  0  0  0.0  .470491126180D-03  .227373675443D-11  .000000000000D+00
     .440000000000D+02 -.121875000000D+01  .423053336155D-08  .185314908065D+01
    -.372529029846D-07  .855518016033D-02  .735558569431D-05  .515371234894D+04
     .259200000000D+06 -.137835741043D-06  .731375422162D+00  .119209289551D-06
     .970158031273D+00  .243218750000D+03 -.274781129486D+01 -.800854787388D-08
    -.270368404786D-09  .100000000000D+01  .185000000000D+04  .000000000000D+00
     .240000000000D+01  .000000000000D+00 -.111758708954D-07  .440000000000D+02
     .252006000000D+06  .400000000000D+01
 8 15  6 24  0  0  0.0 -.225147232413D-03 -.147792889038D-11  .000000000000D+00
     .200000000000D+01  .114375000000D+02  .521235997286D-08 -.606417850366D+00
     .789761543274D-06  .777602859307D-02  .781007111073D-05  .515372154045D+04
     .259200000000D+06  .353902578354D-07  .177412316619D+01  .968575477600D-07
     .982889359664D+00  .242375000000D+03  .891887014720D+00 -.792104422900D-08
     .210008747707D-09  .100000000000D+01  .185000000000D+04  .000000000000D+00
     .240000000000D+01  .630000000000D+02 -.190921127796D-07  .200000000000D+01
     .252006000000D+06  .400000000000D+01
 9 15  6 24  0  0  0.0 -.173617620021D-03 -.386535248253D-11  .000000000000D+00
     .660000000000D+02  .372500000000D+02  .474484049879D-08 -.244095035634D+01
     .184401869774D-05  .445261248387D-03  .588782131672D-05  .515378776550D+04
     .259200000000D+06  .260770320892D-07 -.344777550032D+00 -.745058059692D-08
     .957407256312D+00  .263656250000D+03  .268948383232D+01 -.823427156189D-08
    -.825034365993D-10  .100000000000D+01  .185000000000D+04  .000000000000D+00
     .240000000000D+01  .000000000000D+00  .465661287308D-09  .660000000000D+02
     .252006000000D+06  .400000000000D+01
10 15  6 24  0  0  0.0 -.179989263415D-03 -.136424205266D-11  .000000000000D+00
     .970000000000D+02  .262187500000D+02  .508021161121D-08 -.521340382160D+00
     .140629708767D-05  .147803717991D-01  .941194593906D-05  .515369340324D+04
     .259200000000D+06 -.409781932831D-07 -.138007742890D+01  .234693288803D-06
     .940896543432D+00  .186031250000D+03  .934099356439D+00 -.849892544293D-08
    -.614311302817D-10  .100000000000D+01  .185000000000D+04  .000000000000D+00
     .340000000000D+01  .000000000000D+00 -.279396772385D-08  .970000000000D+02
     .252006000000D+06  .400000000000D+01
11 15  6 24  0  0  0.0 -.586977228522D-03 -.250111042988D-11  .000000000000D+00
     .660000000000D+02 -.601250000000D+02  .624025993187D-08  .191018457732D+01
    -.340305268764D-05  .159078298602D-01  .572018325329D-05  .515374183083D+04
     .259200000000D+06  .987201929092D-07 -.278106758480D+01 -.372529029846D-06
     .893633196164D+00  .232250000000D+03  .141353201007D+01 -.874036407125D-08
    -.346443002170D-10  .100000000000D+01  .185000000000D+04  .000000000000D+00
     .240000000000D+01  .000000000000D+00 -.121071934700D-07  .660000000000D+02
     .252006000000D+06  .400000000000D+01
12 15  6 24  0  0  0.0  .304039102048D-03  .329691829393D-11  .000000000000D+00
     .210000000000D+02  .101562500000D+02  .375122768226D-08  .130017135708D+01
     .368803739548D-06  .558407953940D-02  .865012407303D-05  .515366491127D+04
     .259200000000D+06 -.186264514923D-07  .180098628761D+01  .800937414169D-07
     .989648583933D+00  .225437500000D+03  .623124430422D+00 -.779461039110D-08
     .178221709364D-09  .100000000000D+01  .185000000000D+04  .000000000000D+00
     .240000000000D+01  .000000000000D+00 -.121071934700D-07  .210000000000D+02
     .252006000000D+06  .400000000000D+01
13 15  6 24  0  0  0.0 -.126077793539D-03 -.341060513165D-11  .000000000000D+00
     .320000000000D+02  .387187500000D+02  .423731935850D-08  .261190915307D+01
     .214017927647D-05  .499670242425D-02  .602193176746D-05  .515367902565D+04
     .259200000000D+06 -.465661287308D-07 -.229291064950D+00  .372529029846D-07
     .974158805007D+00  .271031250000D+03  .209619017261D+01 -.787568519676D-08
    -.106433004790D-09  .100000000000D+01  .185000000000D+04  .000000000000D+00
     .240000000000D+01  .000000000000D+00 -.111758708954D-07  .320000000000D+02
     .252006000000D+06  .400000000000D+01
14 15  6 24  0  0  0.0  .538649037480D-04 -.272848410532D-11  .000000000000D+00
     .450000000000D+02  .380000000000D+02  .444089926699D-08 -.173714174846D+01
     .196881592274D-05  .827065587509D-02  .580213963985D-05  .515360831642D+04
     .259200000000D+06  .229105353355D-06 -.264056923968D+00  .223517417908D-07
     .966633939155D+00  .272437500000D+03 -.197467104493D+01 -.798426114795D-08
    -.864321716755D-10  .100000000000D+01  .185000000000D+04  .000000000000D+00
     .240000000000D+01  .000000000000D+00 -.931322574615D-08  .450000000000D+02
     .252006000000D+06  .400000000000D+01
15 15  6 24  0  0  0.0 -.256656203419D-03 -.216004991671D-11  .000000000000D+00
     .970000000000D+02  .445937500000D+02  .521557439247D-08 -.239344282610D+01
     .231154263020D-05  .718272593804D-02  .604614615440D-05  .515365996361D+04
     .259200000000D+06 -.260770320892D-07 -.389024848835D+00 -.782310962677D-07
     .933235422853D+00  .249093750000D+03  .390916475057D+00 -.838356349478D-08
     .592881838766D-10  .100000000000D+01  .185000000000D+04  .000000000000D+00
     .240000000000D+01  .000000000000D+00 -.107102096081D-07  .970000000000D+02
     .252006000000D+06  .400000000000D+01
16 15  6 24  0  0  0.0 -.115784350783D-03  .397903932026D-11  .000000000000D+00
     .330000000000D+02  .114687500000D+02  .374729894719D-08 -.752422955608D+00
     .733882188797D-06  .815146113746D-02  .735372304916D-05  .515357850838D+04
     .259200000000D+06  .143423676491D-06  .181968100991D+01 -.260770320892D-07
     .990196660340D+00  .248312500000D+03  .315228641212D+00 -.781068248913D-08
     .243581574722D-09  .100000000000D+01  .185000000000D+04  .000000000000D+00
     .240000000000D+01  .000000000000D+00 -.102445483208D-07  .330000000000D+02
     .252006000000D+06  .400000000000D+01
17 15  6 24  0  0  0.0 -.177224166691D-03 -.159161572810D-11  .000000000000D+00
     .600000000000D+01 -.166250000000D+02  .453768901296D-08 -.171552444792D+01
    -.683590769768D-06  .101186749525D-01  .529550015926D-05  .515377991486D+04
     .259200000000D+06  .178813934326D-06  .284596600867D+01  .521540641785D-07
     .973023396250D+00  .280906250000D+03 -.200825438191D+01 -.802640576059D-08
     .262153776900D-09  .100000000000D+01  .185000000000D+04  .000000000000D+00
     .240000000000D+01  .000000000000D+00 -.107102096081D-07  .600000000000D+01
     .252006000000D+06  .400000000000D+01
